NORAD_CAT_ID,OBJECT_NAME,OBJECT_TYPE,EPOCH,MEAN_MOTION,ECCENTRICITY,INCLINATION,RA_OF_ASC_NODE,ARG_OF_PERICENTER,MEAN_ANOMALY,BSTAR,MEAN_MOTION_DOT,MEAN_MOTION_DDOT,TLE_LINE0,TLE_LINE1,TLE_LINE2,SEMIMAJOR_AXIS,PERIOD,APOGEE,PERIGEE,DECAYED
52140.0,STARLINK-3682,PAYLOAD,2022-04-09 20:00:01,15.73089313,0.0001111,53.218,36.9585,113.1674,51.4862,0.0012779999999999,0.00181808,0.0,0 STARLINK-3682,1 52140U 22029BE  22099.83334491  .00181808  00000-0  12780-2 0  9990,2 52140  53.2180  36.9585 0001111 113.1674  51.4862 15.73089313  4668,6728.2109999999975,91.54,350.8230000000001,349.32800000000015,0.0
52140.0,STARLINK-3682,PAYLOAD,2022-04-09 22:00:00,15.73121074,0.0001116,53.2179,36.5467,109.9313,166.9258,0.0012088,0.0017195999999999,0.0,0 STARLINK-3682,1 52140U 22029BE  22099.91667824  .00171960  00000-0  12088-2 0  9997,2 52140  53.2179  36.5467 0001116 109.9313 166.9258 15.73121074  3716,6728.12,91.538,350.736,349.2340000000001,0.0
52140.0,STARLINK-3682,PAYLOAD,2022-04-10 12:00:00,15.73329207,0.0001233,53.2175,33.6604,106.1277,236.3833,-0.00070875,-0.00099467,0.0,0 STARLINK-3682,1 52140U 22029BE  22100.50001157 -.00099467  00000-0 -70875-3 0  9998,2 52140  53.2175  33.6604 0001233 106.1277 236.3833 15.73329207  4766,6727.526999999999,91.526,350.221,348.56199999999984,0.0
52140.0,STARLINK-3682,PAYLOAD,2022-04-10 14:00:01,15.73298825,0.000124,53.2177,33.2474,110.1799,344.6033,-0.00045448,-0.00064187,0.0,0 STARLINK-3682,1 52140U 22029BE  22100.58334491 -.00064187  00000-0 -45448-3 0  9995,2 52140  53.2177  33.2474 0001240 110.1799 344.6033 15.73298825  3711,6727.613,91.527,350.31300000000016,348.644,0.0
52140.0,STARLINK-3682,PAYLOAD,2022-04-10 20:00:01,15.73300093,0.0001382,53.2179,32.0097,112.7388,318.8361,-0.00031073,-0.00044188,0.0,0 STARLINK-3682,1 52140U 22029BE  22100.83334491 -.00044188  00000-0 -31073-3 0  9991,2 52140  53.2179  32.0097 0001382 112.7388 318.8361 15.73300093  4810,6727.61,91.527,350.405,348.545,0.0
52140.0,STARLINK-3682,PAYLOAD,2022-04-10 22:00:00,15.73302765,0.000135,53.218,31.5979,112.1842,71.6491,-0.00048629,-0.00068613,0.0,0 STARLINK-3682,1 52140U 22029BE  22100.91667824 -.00068613  00000-0 -48629-3 0  9993,2 52140  53.2180  31.5979 0001350 112.1842  71.6491 15.73302765  3713,6727.602,91.527,350.375,348.559,0.0
52140.0,STARLINK-3682,PAYLOAD,2022-04-11 04:00:01,15.73223211,0.0001225,53.2181,30.3622,100.439,60.2194,-0.00015135,-0.00021827,0.0,0 STARLINK-3682,1 52140U 22029BE  22101.16668981 -.00021827  00000-0 -15135-3 0  9998,2 52140  53.2181  30.3622 0001225 100.4390  60.2194 15.73223211  4875,6727.829000000002,91.532,350.51800000000014,348.87,0.0
52140.0,STARLINK-3682,PAYLOAD,2022-04-11 14:00:01,15.73236373,0.0001317,53.2179,28.2985,109.2881,252.4695,-0.00074674,-0.00104292,0.0,0 STARLINK-3682,1 52140U 22029BE  22101.58334491 -.00104292  00000-0 -74674-3 0  9991,2 52140  53.2179  28.2985 0001317 109.2881 252.4695 15.73236373  3710,6727.791,91.531,350.543,348.77,0.0
52140.0,STARLINK-3682,PAYLOAD,2022-04-11 20:00:01,15.73170603,0.0001672,53.218,27.0613,109.0785,229.3862,-0.00049647,-0.00069638,0.0,0 STARLINK-3682,1 52140U 22029BE  22101.83334491 -.00069638  00000-0 -49647-3 0  9995,2 52140  53.2180  27.0613 0001672 109.0785 229.3862 15.73170603  4973,6727.979,91.535,350.969,348.719,0.0
52140.0,STARLINK-3682,PAYLOAD,2022-04-11 22:00:00,15.73138254,0.000168,53.2179,26.6496,106.2999,344.3921,-0.00015642,-0.00022457,0.0,0 STARLINK-3682,1 52140U 22029BE  22101.91667824 -.00022457  00000-0 -15642-3 0  9999,2 52140  53.2179  26.6496 0001680 106.2999 344.3921 15.73138254  3700,6728.071,91.537,351.06699999999995,348.806,0.0
52140.0,STARLINK-3682,PAYLOAD,2022-04-12 04:00:00,15.73092589,0.0001735,53.2177,25.4142,99.8947,327.4249,0.00065332,0.00091652,0.0,0 STARLINK-3682,1 52140U 22029BE  22102.16667824  .00091652  00000-0  65332-3 0  9999,2 52140  53.2177  25.4142 0001735  99.8947 327.4249 15.73092589  5026,6728.201,91.539,351.2340000000001,348.899,0.0
52140.0,STARLINK-3682,PAYLOAD,2022-04-12 14:00:01,15.73146554,0.0001682,53.2176,23.3505,109.0258,159.3567,0.00064991,0.00091379,0.0,0 STARLINK-3682,1 52140U 22029BE  22102.58334491  .00091379  00000-0  64991-3 0  9992,2 52140  53.2176  23.3505 0001682 109.0258 159.3567 15.73146554  3705,6728.0480000000025,91.536,351.0440000000001,348.781,0.0
52140.0,STARLINK-3682,PAYLOAD,2022-04-12 20:00:01,15.73194194,0.0001740999999999,53.218,22.1135,110.7322,134.2976,0.00034112,0.00047514,0.0,0 STARLINK-3682,1 52140U 22029BE  22102.83334491  .00047514  00000-0  34112-3 0  9994,2 52140  53.2180  22.1135 0001741 110.7322 134.2976 15.73194194  5131,6727.9119999999975,91.534,350.9480000000001,348.605,0.0
52140.0,STARLINK-3682,PAYLOAD,2022-04-12 22:00:00,15.73214541,0.0001696999999999,53.218,21.7017,108.2947,248.9631,0.00012546,0.00017034,0.0,0 STARLINK-3682,1 52140U 22029BE  22102.91667824  .00017034  00000-0  12546-3 0  9993,2 52140  53.2180  21.7017 0001697 108.2947 248.9631 15.73214541  3699,6727.854,91.532,350.86,348.577,0.0
52140.0,STARLINK-3682,PAYLOAD,2022-04-13 12:00:00,15.73205603,0.0001799,53.2176,18.8094,107.1581,315.7715,-1.2334e-05,-2.352e-05,0.0,0 STARLINK-3682,1 52140U 22029BE  22103.50001157 -.00002352  00000-0 -12334-4 0  9995,2 52140  53.2176  18.8094 0001799 107.1581 315.7715 15.73205603  5238,6727.879,91.533,350.955,348.534,0.0
52140.0,STARLINK-3682,PAYLOAD,2022-04-13 14:00:03,15.73204615,0.0001798,53.2175,18.3962,106.6808,68.6143,2.4443e-06,-2.78e-06,0.0,0 STARLINK-3682,1 52140U 22029BE  22103.58336806 -.00000278  00000-0  24443-5 0  9994,2 52140  53.2175  18.3962 0001798 106.6808  68.6143 15.73204615  3713,6727.882,91.533,350.957,348.537,0.0
52140.0,STARLINK-3682,PAYLOAD,2022-04-13 20:00:01,15.73396039,0.0001633,53.2178,17.1622,116.0092,36.0167,-0.0026042,-0.00354132,0.0,0 STARLINK-3682,1 52140U 22029BE  22103.83335648 -.00354132  00000-0 -26042-2 0  9991,2 52140  53.2178  17.1622 0001633 116.0092  36.0167 15.73396039  5285,6727.3359999999975,91.522,350.3,348.103,0.0
52140.0,STARLINK-3682,PAYLOAD,2022-04-13 22:00:00,15.73451267,0.0001488,53.2179,16.7502,116.5549,147.6545,-0.0046123,-0.00609662,0.0,0 STARLINK-3682,1 52140U 22029BE  22103.91667824 -.00609662  00000-0 -46123-2 0  9997,2 52140  53.2179  16.7502 0001488 116.5549 147.6545 15.73451267  3707,6727.179,91.519,350.045,348.043,0.0
52140.0,STARLINK-3682,PAYLOAD,2022-04-14 04:00:00,15.73198098,0.0001112,53.2177,15.5178,106.0379,134.8909,0.00015884,0.00021728,0.0,0 STARLINK-3682,1 52140U 22029BE  22104.16667824  .00021728  00000-0  15884-3 0  9995,2 52140  53.2177  15.5178 0001112 106.0379 134.8909 15.73198098  5344,6727.901,91.533,350.514,349.017,0.0
52140.0,STARLINK-3682,PAYLOAD,2022-04-14 14:00:01,15.73190741,0.0001259,53.2176,13.4537,119.6909,322.3991,0.00053135,0.00074586,0.0,0 STARLINK-3682,1 52140U 22029BE  22104.58334491  .00074586  00000-0  53135-3 0  9993,2 52140  53.2176  13.4537 0001259 119.6909 322.3991 15.73190741  3700,6727.922,91.534,350.634,348.94,0.0
52140.0,STARLINK-3682,PAYLOAD,2022-04-14 22:00:00,15.73265356,0.0001291999999999,53.2179,11.8054,114.0529,56.9885,-0.00091655,-0.00127674,0.0,0 STARLINK-3682,1 52140U 22029BE  22104.91667824 -.00127674  00000-0 -91655-3 0  9997,2 52140  53.2179  11.8054 0001292 114.0529  56.9885 15.73265356  3711,6727.709,91.529,350.4430000000001,348.705,0.0
52140.0,STARLINK-3682,PAYLOAD,2022-04-15 03:22:27,15.73288164,0.0001056,53.2179,10.6945,136.8386,223.2717,0.00015721,0.00021583,0.0,0 STARLINK-3682,1 52140U 22029BE  22105.14060128  .00021583  00000-0  15721-3 0  9997,2 52140  53.2179  10.6945 0001056 136.8386 223.2717 15.73288164  5490,6727.644,91.528,350.219,348.798,0.0
52140.0,STARLINK-3682,PAYLOAD,2022-04-15 10:59:53,15.73230108,0.0001386999999999,53.2179,9.1252,119.5768,240.539,-9.3455e-06,-1.933e-05,0.0,0 STARLINK-3682,1 52140U 22029BE  22105.45825400 -.00001933  00000-0 -93455-5 0  9994,2 52140  53.2179   9.1252 0001387 119.5768 240.5390 15.73230108  5543,6727.809,91.531,350.607,348.741,0.0
52140.0,STARLINK-3682,PAYLOAD,2022-04-15 14:00:01,15.73253542,0.0001149,53.2177,8.5053,122.1553,226.849,0.0002937,0.00040894,0.0,0 STARLINK-3682,1 52140U 22029BE  22105.58334491  .00040894  00000-0  29370-3 0  9993,2 52140  53.2177   8.5053 0001149 122.1553 226.8490 15.73253542  3702,6727.743,91.53,350.381,348.835,0.0
52140.0,STARLINK-3682,PAYLOAD,2022-04-15 20:00:01,15.73296767,0.0001233,53.2178,7.2689,120.3415,205.4123,-0.00041516,-0.0005872,0.0,0 STARLINK-3682,1 52140U 22029BE  22105.83334491 -.00058720  00000-0 -41516-3 0  9996,2 52140  53.2178   7.2689 0001233 120.3415 205.4123 15.73296767  5608,6727.619000000002,91.528,350.314,348.655,0.0
52140.0,STARLINK-3682,PAYLOAD,2022-04-15 22:00:00,15.73292215,0.0001217,53.2175,6.8572,115.7218,322.2899,-0.00050379,-0.00071007,0.0,0 STARLINK-3682,1 52140U 22029BE  22105.91667824 -.00071007  00000-0 -50379-3 0  9994,2 52140  53.2175   6.8572 0001217 115.7218 322.2899 15.73292215  3680,6727.632,91.528,350.316,348.67900000000014,0.0
52140.0,STARLINK-3682,PAYLOAD,2022-04-16 04:00:00,15.73231807,0.0001227,53.2171,5.6211,106.8588,307.8924,-0.00044947,-0.00063312,0.0,0 STARLINK-3682,1 52140U 22029BE  22106.16667824 -.00063312  00000-0 -44947-3 0  9996,2 52140  53.2171   5.6211 0001227 106.8588 307.8924 15.73231807  5652,6727.804,91.531,350.495,348.844,0.0
52140.0,STARLINK-3682,PAYLOAD,2022-04-16 12:00:02,15.73143707,0.0001396999999999,53.2171,3.9695,116.572,27.1847,-0.00087237,-0.00121016,0.0,0 STARLINK-3682,1 52140U 22029BE  22106.50002315 -.00121016  00000-0 -87237-3 0  9997,2 52140  53.2171   3.9695 0001397 116.5720  27.1847 15.73143707  5706,6728.056,91.536,350.861,348.981,0.0
52140.0,STARLINK-3682,PAYLOAD,2022-04-16 14:00:01,15.73081029,0.0001476,53.217,3.5569,118.3005,137.6161,-0.00020066,-0.00028543,0.0,0 STARLINK-3682,1 52140U 22029BE  22106.58334491 -.00028543  00000-0 -20066-3 0  9996,2 52140  53.2170   3.5569 0001476 118.3005 137.6161 15.73081029  3707,6728.234,91.54,351.092,349.106,0.0
